{
    "links": {
        "self": "http://www.neowsapp.com/rest/v1/neo/3747990?api_key=iIulBulltgU6a56xZRHN4H3l9WmuAYTsLGpBGhQ2"
    },
    "id": "3747990",
    "neo_reference_id": "3747990",
    "name": "(2016 FC1)",
    "designation": "2016 FC1",
    "nasa_jpl_url": "http://ssd.jpl.nasa.gov/sbdb.cgi?sstr=3747990",
    "absolute_magnitude_h": 29.1,
    "estimated_diameter": {
        "kilometers": {
            "estimated_diameter_min": 0.0040230458,
            "estimated_diameter_max": 0.0089958039
        },
        "meters": {
            "estimated_diameter_min": 4.0230457983,
            "estimated_diameter_max": 8.9958038817
        },
        "miles": {
            "estimated_diameter_min": 0.002499804,
            "estimated_diameter_max": 0.0055897317
        },
        "feet": {
            "estimated_diameter_min": 13.198969577,
            "estimated_diameter_max": 29.5137932072
        }
    },
    "is_potentially_hazardous_asteroid": false,
    "close_approach_data": [
        {
            "close_approach_date": "2016-03-14",
            "close_approach_date_full": "2016-Mar-14 11:33",
            "epoch_date_close_approach": 1457955180000,
            "relative_velocity": {
                "kilometers_per_second": "15.2352977134",
                "kilometers_per_hour": "54847.0717683624",
                "miles_per_hour": "34079.8374551805"
            },
            "miss_distance": {
                "astronomical": "0.0013097432",
                "lunar": "0.5094901048",
                "kilometers": "195934.792966984",
                "miles": "121748.2348090192"
            },
            "orbiting_body": "Moon"
        },
        {
            "close_approach_date": "2016-03-14",
            "close_approach_date_full": "2016-Mar-14 14:27",
            "epoch_date_close_approach": 1457965620000,
            "relative_velocity": {
                "kilometers_per_second": "16.1893333905",
                "kilometers_per_hour": "58281.6002058803",
                "miles_per_hour": "36213.9198612593"
            },
            "miss_distance": {
                "astronomical": "0.0011222972",
                "lunar": "0.4365736108",
                "kilometers": "167893.270626964",
                "miles": "104324.0407975432"
            },
            "orbiting_body": "Earth"
        }
    ],
    "orbital_data": {
        "orbit_id": "3",
        "orbit_determination_date": "2017-04-06 08:27:20",
        "first_observation_date": "2016-03-16",
        "last_observation_date": "2016-03-18",
        "data_arc_in_days": 2,
        "observations_used": 25,
        "orbit_uncertainty": "8",
        "minimum_orbit_intersection": ".000595792",
        "jupiter_tisserand_invariant": "3.492",
        "epoch_osculation": "2457464.5",
        "eccentricity": ".639644894791487",
        "semi_major_axis": "2.061357387277206",
        "inclination": "1.247541814330395",
        "ascending_node_longitude": "352.5771358933537",
        "orbital_period": "1081.006655632894",
        "perihelion_distance": ".7428206581646231",
        "perihelion_argument": "112.1485533545477",
        "aphelion_distance": "3.379894116389789",
        "perihelion_time": "2457418.694499076091",
        "mean_anomaly": "15.25428196642591",
        "mean_motion": ".3330229264770176",
        "equinox": "J2000",
        "orbit_class": {
            "orbit_class_type": "APO",
            "orbit_class_description": "Near-Earth asteroid orbits which cross the Earth’s orbit similar to that of 1862 Apollo",
            "orbit_class_range": "a (semi-major axis) > 1.0 AU; q (perihelion) < 1.017 AU"
        }
    },
    "is_sentry_object": false
}